OBJECT_NAME,OBJECT_ID,EPOCH,MEAN_MOTION,ECCENTRICITY,INCLINATION,RA_OF_ASC_NODE,ARG_OF_PERICENTER,MEAN_ANOMALY,EPHEMERIS_TYPE,CLASSIFICATION_TYPE,NORAD_CAT_ID,ELEMENT_SET_NO,REV_AT_EPOCH,BSTAR,MEAN_MOTION_DOT,MEAN_MOTION_DDOT
STARLINK-37673,2026-123T,2026-06-13T22:00:01.999584,15.90969010,.00007852,53.1561,257.7428,67.4917,333.9614,0,U,69370,999,267,-.70442241E-2,-.2249354E-1,.13427157E-2
STARLINK-37645,2026-123U,2026-06-13T22:00:01.999584,15.89980407,.00008491,53.1563,257.7489,65.9862,332.4046,0,U,69371,999,267,-.79198736E-2,-.2099789E-1,0
STARLINK-37688,2026-123V,2026-06-13T22:00:01.999584,15.88953446,.00009142,53.1561,257.7063,65.7921,352.8693,0,U,69372,999,267,-.75828721E-2,-.1888604E-1,0
STARLINK-37685,2026-123W,2026-06-13T22:00:01.999584,15.88865829,.00010315,53.1559,257.6986,51.2492,11.1302,0,U,69373,999,267,-.7583167E-2,-.1881681E-1,0
STARLINK-37632,2026-123X,2026-06-13T22:00:01.999584,15.88894104,.00010901,53.1558,257.6913,44.2262,21.6408,0,U,69374,999,262,-.7582569E-2,-.1883923E-1,0
STARLINK-37454,2026-123Y,2026-06-13T22:00:01.999584,15.88843833,.00010581,53.1558,257.6767,44.0681,28.6420,0,U,69375,999,276,-.7503758E-2,-.1863242E-1,0
STARLINK-37485,2026-123Z,2026-06-13T22:00:01.999584,15.88849682,.00010354,53.1556,257.6677,42.6304,34.3567,0,U,69376,999,276,-.75873527E-2,-.1881254E-1,0
STARLINK-37439,2026-123AA,2026-06-13T22:00:01.999584,15.90589198,.00009441,53.1553,257.6087,65.6009,39.7340,0,U,69377,999,262,-.68919017E-2,-.1870733E-1,0
STARLINK-37376,2026-123AB,2026-06-13T22:00:01.999584,15.89712474,.0001064,53.1555,257.6262,49.9361,46.8440,0,U,69378,999,276,-.70685548E-2,-.1839259E-1,0
STARLINK-37383,2026-123AC,2026-06-13T22:00:01.999584,15.90493994,.00010402,53.1549,257.5643,49.5924,76.7284,0,U,69379,999,276,-.69489968E-2,-.1876098E-1,0
STARLINK-37411,2026-123AD,2026-06-13T22:00:01.999584,15.89729770,.00010609,53.1553,257.6110,45.4544,58.3758,0,U,69380,999,276,-.71554974E-2,-.1859885E-1,0
STARLINK-37427,2026-123AE,2026-06-13T22:00:01.999584,15.90603985,.00010664,53.1553,257.5779,52.5214,67.3380,0,U,69381,999,267,-.66864822E-2,-.1824484E-1,0
QIANFAN-165,2026-124A,2026-06-13T19:09:35.953056,14.21216415,.00023998,88.9991,2.4245,151.4164,208.7159,0,U,69382,999,133,.37879444E-4,.97E-6,0
QIANFAN-166,2026-124B,2026-06-13T19:04:51.753216,14.20107670,.00005903,88.9981,2.4246,340.7303,19.3865,0,U,69383,999,133,-.99594861E+0,-.1966168E-1,0
QIANFAN-167,2026-124C,2026-06-13T19:06:00.436896,14.21602818,.00018903,88.9980,2.4227,193.2353,166.8789,0,U,69384,999,133,.38081252E-4,.98E-6,0
QIANFAN-168,2026-124D,2026-06-13T19:04:31.063008,14.22660974,.0002644,88.9990,2.4241,149.7217,210.4128,0,U,69385,999,133,.37699275E-4,.99E-6,0
QIANFAN-169,2026-124E,2026-06-13T19:01:12.668736,14.19567789,.00081693,88.9978,2.4236,202.3146,157.7690,0,U,69386,999,133,-.87798131E+0,-.1713149E-1,0
QIANFAN-170,2026-124F,2026-06-13T19:02:03.247296,14.21745552,.00038669,88.9974,2.4249,117.7396,242.4187,0,U,69387,999,133,-.10304016E+1,-.2088106E-1,0
QIANFAN-171,2026-124G,2026-06-13T18:59:02.743008,14.20530017,.0022197,88.9981,2.4235,187.5923,172.4935,0,U,69388,999,133,-.86631143E+0,-.1724011E-1,0
QIANFAN-172,2026-124H,2026-06-13T20:34:16.387104,14.29008880,.0003179,88.9977,2.4156,174.9675,185.1552,0,U,69389,999,134,-.61076877E+0,-.1443543E-1,0
QIANFAN-173,2026-124J,2026-06-13T19:01:00.716160,14.25636559,.00025232,88.9984,2.4233,170.3122,189.8120,0,U,69390,999,133,.37327053E-4,.103E-5,0
QIANFAN-174,2026-124K,2026-06-13T22:22:40.872000,14.25618183,.00023562,88.9983,2.4071,170.2723,189.8516,0,U,69391,999,135,.37206255E-4,.103E-5,0
QIANFAN-175,2026-124L,2026-06-13T22:22:34.344480,14.25625595,.00027305,88.9984,2.4071,177.7463,182.3743,0,U,69392,999,135,.37182637E-4,.103E-5,0
QIANFAN-176,2026-124M,2026-06-13T22:22:19.525152,14.25634312,.00018319,88.9984,2.4071,177.5929,182.5273,0,U,69393,999,135,.37175781E-4,.103E-5,0
QIANFAN-177,2026-124N,2026-06-13T22:21:38.644992,14.25688973,.00028437,88.9981,2.4068,162.5691,197.5600,0,U,69394,999,135,.914732E-6,.17E-6,0
QIANFAN-178,2026-124P,2026-06-13T22:21:48.893760,14.25626020,.00022862,88.9983,2.4069,167.9963,192.1285,0,U,69395,999,135,.37205256E-4,.103E-5,0
QIANFAN-179,2026-124Q,2026-06-13T20:38:29.185728,14.22997940,.00043527,88.9978,2.4153,107.3109,252.8559,0,U,69396,999,134,-.94571829E+0,-.1971323E-1,0
QIANFAN-180,2026-124R,2026-06-13T22:20:53.148480,14.26489158,.00023283,88.9984,2.4070,170.5567,189.5670,0,U,69397,999,135,.37166264E-4,.104E-5,0
QIANFAN-181,2026-124S,2026-06-13T22:32:42.420768,14.21115019,.00020951,88.9984,2.4083,140.2931,219.8413,0,U,69398,999,135,.3792789E-4,.97E-6,0
QIANFAN-182,2026-124T,2026-06-13T19:02:53.133792,14.24123720,.0003044,88.9961,2.4186,159.9795,200.1517,0,U,69399,999,133,.37156349E-4,.1E-5,0
