STARLINK-37673          
1 69370U 26123T   26164.91668981 -.02249354  13427-2 -70442-2 0  9995
2 69370  53.1561 257.7428 0000785  67.4917 333.9614 15.90969010  2671
STARLINK-37645          
1 69371U 26123U   26164.91668981 -.02099789  00000+0 -79199-2 0  9999
2 69371  53.1563 257.7489 0000849  65.9862 332.4046 15.89980407  2678
STARLINK-37688          
1 69372U 26123V   26164.91668981 -.01888604  00000+0 -75829-2 0  9997
2 69372  53.1561 257.7063 0000914  65.7921 352.8693 15.88953446  2678
STARLINK-37685          
1 69373U 26123W   26164.91668981 -.01881681  00000+0 -75832-2 0  9990
2 69373  53.1559 257.6986 0001031  51.2492  11.1302 15.88865829  2672
STARLINK-37632          
1 69374U 26123X   26164.91668981 -.01883923  00000+0 -75826-2 0  9995
2 69374  53.1558 257.6913 0001090  44.2262  21.6408 15.88894104  2620
STARLINK-37454          
1 69375U 26123Y   26164.91668981 -.01863242  00000+0 -75038-2 0  9993
2 69375  53.1558 257.6767 0001058  44.0681  28.6420 15.88843833  2764
STARLINK-37485          
1 69376U 26123Z   26164.91668981 -.01881254  00000+0 -75874-2 0  9995
2 69376  53.1556 257.6677 0001035  42.6304  34.3567 15.88849682  2768
STARLINK-37439          
1 69377U 26123AA  26164.91668981 -.01870733  00000+0 -68919-2 0  9998
2 69377  53.1553 257.6087 0000944  65.6009  39.7340 15.90589198  2625
STARLINK-37376          
1 69378U 26123AB  26164.91668981 -.01839259  00000+0 -70686-2 0  9991
2 69378  53.1555 257.6262 0001064  49.9361  46.8440 15.89712474  2761
STARLINK-37383          
1 69379U 26123AC  26164.91668981 -.01876098  00000+0 -69490-2 0  9995
2 69379  53.1549 257.5643 0001040  49.5924  76.7284 15.90493994  2765
STARLINK-37411          
1 69380U 26123AD  26164.91668981 -.01859885  00000+0 -71555-2 0  9997
2 69380  53.1553 257.6110 0001060  45.4544  58.3758 15.89729770  2761
STARLINK-37427          
1 69381U 26123AE  26164.91668981 -.01824484  00000+0 -66865-2 0  9993
2 69381  53.1553 257.5779 0001066  52.5214  67.3380 15.90603985  2673
QIANFAN-165             
1 69382U 26124A   26164.79833279  .00000097  00000+0  37879-4 0  9993
2 69382  88.9991   2.4245 0002399 151.4164 208.7159 14.21216415  1332
QIANFAN-166             
1 69383U 26124B   26164.79504344 -.01966168  00000+0 -99595+0 0  9993
2 69383  88.9981   2.4246 0000590 340.7303  19.3865 14.20107670  1333
QIANFAN-167             
1 69384U 26124C   26164.79583839  .00000098  00000+0  38081-4 0  9996
2 69384  88.9980   2.4227 0001890 193.2353 166.8789 14.21602818  1330
QIANFAN-168             
1 69385U 26124D   26164.79480397  .00000099  00000+0  37699-4 0  9997
2 69385  88.9990   2.4241 0002644 149.7217 210.4128 14.22660974  1332
QIANFAN-169             
1 69386U 26124E   26164.79250774 -.01713149  00000+0 -87798+0 0  9992
2 69386  88.9978   2.4236 0008169 202.3146 157.7690 14.19567789  1331
QIANFAN-170             
1 69387U 26124F   26164.79309314 -.02088106  00000+0 -10304+1 0  9997
2 69387  88.9974   2.4249 0003866 117.7396 242.4187 14.21745552  1339
QIANFAN-171             
1 69388U 26124G   26164.79100397 -.01724011  00000+0 -86631+0 0  9994
2 69388  88.9981   2.4235 0022197 187.5923 172.4935 14.20530017  1332
QIANFAN-172             
1 69389U 26124H   26164.85713411 -.01443543  00000+0 -61077+0 0  9994
2 69389  88.9977   2.4156 0003179 174.9675 185.1552 14.29008880  1347
QIANFAN-173             
1 69390U 26124J   26164.79236940  .00000103  00000+0  37327-4 0  9990
2 69390  88.9984   2.4233 0002523 170.3122 189.8120 14.25636559  1339
QIANFAN-174             
1 69391U 26124K   26164.93241750  .00000103  00000+0  37206-4 0  9998
2 69391  88.9983   2.4071 0002356 170.2723 189.8516 14.25618183  1353
QIANFAN-175             
1 69392U 26124L   26164.93234195  .00000103  00000+0  37183-4 0  9998
2 69392  88.9984   2.4071 0002730 177.7463 182.3743 14.25625595  1359
QIANFAN-176             
1 69393U 26124M   26164.93217043  .00000103  00000+0  37176-4 0  9994
2 69393  88.9984   2.4071 0001831 177.5929 182.5273 14.25634312  1353
QIANFAN-177             
1 69394U 26124N   26164.93169728  .00000017  00000+0  91473-6 0  9997
2 69394  88.9981   2.4068 0002843 162.5691 197.5600 14.25688973  1353
QIANFAN-178             
1 69395U 26124P   26164.93181590  .00000103  00000+0  37205-4 0  9996
2 69395  88.9983   2.4069 0002286 167.9963 192.1285 14.25626020  1354
QIANFAN-179             
1 69396U 26124Q   26164.86006002 -.01971323  00000+0 -94572+0 0  9992
2 69396  88.9978   2.4153 0004352 107.3109 252.8559 14.22997940  1345
QIANFAN-180             
1 69397U 26124R   26164.93117070  .00000104  00000+0  37166-4 0  9997
2 69397  88.9984   2.4070 0002328 170.5567 189.5670 14.26489158  1354
QIANFAN-181             
1 69398U 26124S   26164.93937987  .00000097  00000+0  37928-4 0  9992
2 69398  88.9984   2.4083 0002095 140.2931 219.8413 14.21115019  1358
QIANFAN-182             
1 69399U 26124T   26164.79367053  .00000100  00000+0  37156-4 0  9996
2 69399  88.9961   2.4186 0003044 159.9795 200.1517 14.24123720  1335
